GLOBAL-31               
1 63027U 25033B   26199.24606387  .00005823  00000+0  16115-3 0  9998
2 63027  58.9971 190.6522 0012323  58.2320 301.9955 15.38347928 79104
GLOBAL-32               
1 64231U 25118B   26198.85826191  .00007472  00000+0  19738-3 0  9999
2 64231  58.9943   8.4070 0016743  62.6702 297.6076 15.39331508 62967
GLOBAL-33               
1 66554U 25267A   26199.16591187  .00005662  00000+0  15865-3 0  9999
2 66554  42.0179 235.9743 0008046 116.1658 244.0009 15.37263435 36816
GLOBAL-34               
1 68098U 26043A   26198.91009960  .00006066  00000+0  19308-3 0  9997
2 68098  42.0218  43.0625 0002140 168.2808 191.8080 15.33139238 20546
